start=new Date('2021-12-30T00:00:00.000Z').valueOf();
sats=[{"PERIAPSIS":"300.564","ECCENTRICITY":"0.00039410","GP_ID":"192744025","EPOCH":"2021-12-29T22:00:00.999936","OBJECT_TYPE":"PAYLOAD","REF_FRAME":"TEME","TLE_LINE2":"2 47415  97.4959  63.3818 0003941 204.4175 322.8334 15.89674265  3725","FILE":"3255236","NORAD_CAT_ID":"47415","RCS_SIZE":"LARGE","MEAN_MOTION":"15.89674265","EPHEMERIS_TYPE":"0","TIME_SYSTEM":"UTC","MEAN_MOTION_DOT":"-0.00053583","COUNTRY_CODE":"US","ELEMENT_SET_NO":"999","MEAN_MOTION_DDOT":"0.0000032638000","OBJECT_NAME":"STARLINK-2201","MEAN_ANOMALY":"322.8334","ARG_OF_PERICENTER":"204.4175","DECAY_DATE":null,"INCLINATION":"97.4959","SEMIMAJOR_AXIS":"6681.332","APOAPSIS":"305.831","CLASSIFICATION_TYPE":"U","LAUNCH_DATE":"2021-01-24","SITE":"AFETR","RA_OF_ASC_NODE":"63.3818","TLE_LINE1":"1 47415U 21006C   21363.91667824 -.00053583  32638-5 -18048-3 0  9995","OBJECT_ID":"2021-006C","REV_AT_EPOCH":"372","PERIOD":"90.585","MEAN_ELEMENT_THEORY":"SGP4","CENTER_NAME":"EARTH","BSTAR":"-0.00018048000000"},{"CENTER_NAME":"EARTH","BSTAR":"0.00300120000000","TLE_LINE1":"1 47416U 21006D   21363.91667824  .00654874  00000-0  30012-2 0  9991","OBJECT_ID":"2021-006D","PERIOD":"91.023","REV_AT_EPOCH":"367","MEAN_ELEMENT_THEORY":"SGP4","RA_OF_ASC_NODE":"65.5023","LAUNCH_DATE":"2021-01-24","SITE":"AFETR","APOAPSIS":"325.802","CLASSIFICATION_TYPE":"U","INCLINATION":"97.4973","SEMIMAJOR_AXIS":"6702.895","MEAN_ANOMALY":"106.8894","ARG_OF_PERICENTER":"218.3502","DECAY_DATE":null,"OBJECT_NAME":"STARLINK-2202","COUNTRY_CODE":"US","ELEMENT_SET_NO":"999","MEAN_MOTION_DDOT":"0.0000000000000","RCS_SIZE":"LARGE","NORAD_CAT_ID":"47416","MEAN_MOTION":"15.82009664","EPHEMERIS_TYPE":"0","MEAN_MOTION_DOT":"0.00654874","TIME_SYSTEM":"UTC","TLE_LINE2":"2 47416  97.4973  65.5023 0001555 218.3502 106.8894 15.82009664  3674","FILE":"3255236","OBJECT_TYPE":"PAYLOAD","REF_FRAME":"TEME","ECCENTRICITY":"0.00015550","GP_ID":"192743776","EPOCH":"2021-12-29T22:00:00.999936","PERIAPSIS":"323.718"},{"APOAPSIS":"227.425","CLASSIFICATION_TYPE":"U","INCLINATION":"97.4596","SEMIMAJOR_AXIS":"6602.326","RA_OF_ASC_NODE":"67.7647","SITE":"AFETR","LAUNCH_DATE":"2021-01-24","BSTAR":"0.00311630000000","CENTER_NAME":"EARTH","TLE_LINE1":"1 47419U 21006G   21363.82163130  .05152458  24301-5  31163-2 0  9994","OBJECT_ID":"2021-006G","PERIOD":"88.983","REV_AT_EPOCH":"5199","MEAN_ELEMENT_THEORY":"SGP4","ECCENTRICITY":"0.00048990","EPOCH":"2021-12-29T19:43:08.944320","GP_ID":"192717113","PERIAPSIS":"220.956","FILE":"3254995","TLE_LINE2":"2 47419  97.4596  67.7647 0004899 305.2003  54.7664 16.18293613 51993","OBJECT_TYPE":"PAYLOAD","REF_FRAME":"TEME","ELEMENT_SET_NO":"999","COUNTRY_CODE":"US","MEAN_MOTION_DDOT":"0.0000024301000","NORAD_CAT_ID":"47419","RCS_SIZE":"LARGE","MEAN_MOTION":"16.18293613","EPHEMERIS_TYPE":"0","TIME_SYSTEM":"UTC","MEAN_MOTION_DOT":"0.05152458","MEAN_ANOMALY":"54.7664","ARG_OF_PERICENTER":"305.2003","DECAY_DATE":null,"OBJECT_NAME":"STARLINK-2205"},{"PERIAPSIS":"183.324","ECCENTRICITY":"0.00079160","GP_ID":"192722615","EPOCH":"2021-12-30T03:04:47.565120","OBJECT_TYPE":"PAYLOAD","REF_FRAME":"TEME","TLE_LINE2":"2 47421  97.4952  68.1437 0007916 289.8382  71.5905 16.31496964 52045","FILE":"3255233","NORAD_CAT_ID":"47421","RCS_SIZE":"LARGE","TIME_SYSTEM":"UTC","MEAN_MOTION_DOT":"0.07666031","EPHEMERIS_TYPE":"0","MEAN_MOTION":"16.31496964","COUNTRY_CODE":"US","ELEMENT_SET_NO":"999","MEAN_MOTION_DDOT":"0.0000025321000","OBJECT_NAME":"STARLINK-2207","MEAN_ANOMALY":"71.5905","DECAY_DATE":null,"ARG_OF_PERICENTER":"289.8382","SEMIMAJOR_AXIS":"6566.657","INCLINATION":"97.4952","APOAPSIS":"193.720","CLASSIFICATION_TYPE":"U","LAUNCH_DATE":"2021-01-24","SITE":"AFETR","RA_OF_ASC_NODE":"68.1437","OBJECT_ID":"2021-006J","TLE_LINE1":"1 47421U 21006J   21364.12832830  .07666031  25321-5  15222-2 0  9991","MEAN_ELEMENT_THEORY":"SGP4","PERIOD":"88.262","REV_AT_EPOCH":"5204","CENTER_NAME":"EARTH","BSTAR":"0.00152220000000"},{"CENTER_NAME":"EARTH","BSTAR":"0.00299920000000","MEAN_ELEMENT_THEORY":"SGP4","PERIOD":"91.024","REV_AT_EPOCH":"367","OBJECT_ID":"2021-006K","TLE_LINE1":"1 47422U 21006K   21363.91667824  .00654101  00000-0  29992-2 0  9996","RA_OF_ASC_NODE":"65.5346","SITE":"AFETR","LAUNCH_DATE":"2021-01-24","CLASSIFICATION_TYPE":"U","APOAPSIS":"325.817","SEMIMAJOR_AXIS":"6702.921","INCLINATION":"97.4973","DECAY_DATE":null,"ARG_OF_PERICENTER":"218.8387","MEAN_ANOMALY":"120.7789","OBJECT_NAME":"STARLINK-2208","MEAN_MOTION_DDOT":"0.0000000000000","COUNTRY_CODE":"US","ELEMENT_SET_NO":"999","MEAN_MOTION_DOT":"0.00654101","TIME_SYSTEM":"UTC","MEAN_MOTION":"15.82000375","EPHEMERIS_TYPE":"0","NORAD_CAT_ID":"47422","RCS_SIZE":"LARGE","TLE_LINE2":"2 47422  97.4973  65.5346 0001537 218.8387 120.7789 15.82000375  3673","FILE":"3255236","REF_FRAME":"TEME","OBJECT_TYPE":"PAYLOAD","EPOCH":"2021-12-29T22:00:00.999936","GP_ID":"192743525","ECCENTRICITY":"0.00015370","PERIAPSIS":"323.756"},{"GP_ID":"192743792","EPOCH":"2021-12-29T14:16:29.697024","ECCENTRICITY":"0.00014930","PERIAPSIS":"546.178","TLE_LINE2":"2 47548  53.0542  44.9830 0001493  81.6335 278.4823 15.06400669 50163","FILE":"3255236","REF_FRAME":"TEME","OBJECT_TYPE":"PAYLOAD","MEAN_MOTION_DDOT":"0.0000000000000","COUNTRY_CODE":"US","ELEMENT_SET_NO":"999","MEAN_MOTION_DOT":"0.00004626","TIME_SYSTEM":"UTC","EPHEMERIS_TYPE":"0","MEAN_MOTION":"15.06400669","NORAD_CAT_ID":"47548","RCS_SIZE":"LARGE","DECAY_DATE":null,"ARG_OF_PERICENTER":"81.6335","MEAN_ANOMALY":"278.4823","OBJECT_NAME":"STARLINK-1782","CLASSIFICATION_TYPE":"U","APOAPSIS":"548.245","SEMIMAJOR_AXIS":"6925.347","INCLINATION":"53.0542","RA_OF_ASC_NODE":"44.9830","LAUNCH_DATE":"2021-02-04","SITE":"AFETR","CENTER_NAME":"EARTH","BSTAR":"0.00032924000000","MEAN_ELEMENT_THEORY":"SGP4","PERIOD":"95.592","REV_AT_EPOCH":"5016","OBJECT_ID":"2021-009A","TLE_LINE1":"1 47548U 21009A   21363.59478816  .00004626  00000-0  32924-3 0  9994"},{"CENTER_NAME":"EARTH","BSTAR":"0.00030078000000","REV_AT_EPOCH":"5016","PERIOD":"95.592","MEAN_ELEMENT_THEORY":"SGP4","TLE_LINE1":"1 47549U 21009B   21363.59109902  .00004202  00000-0  30078-3 0  9990","OBJECT_ID":"2021-009B","RA_OF_ASC_NODE":"44.9885","SITE":"AFETR","LAUNCH_DATE":"2021-02-04","CLASSIFICATION_TYPE":"U","APOAPSIS":"548.181","INCLINATION":"53.0558","SEMIMAJOR_AXIS":"6925.326","ARG_OF_PERICENTER":"78.0485","DECAY_DATE":null,"MEAN_ANOMALY":"282.0664","OBJECT_NAME":"STARLINK-1806","MEAN_MOTION_DDOT":"0.0000000000000","COUNTRY_CODE":"US","ELEMENT_SET_NO":"999","EPHEMERIS_TYPE":"0","MEAN_MOTION":"15.06407209","TIME_SYSTEM":"UTC","MEAN_MOTION_DOT":"0.00004202","NORAD_CAT_ID":"47549","RCS_SIZE":"LARGE","TLE_LINE2":"2 47549  53.0558  44.9885 0001429  78.0485 282.0664 15.06407209 50167","FILE":"3255236","REF_FRAME":"TEME","OBJECT_TYPE":"PAYLOAD","GP_ID":"192744541","EPOCH":"2021-12-29T14:11:10.955328","ECCENTRICITY":"0.00014290","PERIAPSIS":"546.202"},{"FILE":"3255236","TLE_LINE2":"2 47550  53.0567  34.9416 0001467  78.3316 281.7837 15.06402275 50308","OBJECT_TYPE":"PAYLOAD","REF_FRAME":"TEME","ECCENTRICITY":"0.00014670","EPOCH":"2021-12-29T14:28:26.391936","GP_ID":"192744793","PERIAPSIS":"546.191","MEAN_ANOMALY":"281.7837","ARG_OF_PERICENTER":"78.3316","DECAY_DATE":null,"OBJECT_NAME":"STARLINK-1909","COUNTRY_CODE":"US","ELEMENT_SET_NO":"999","MEAN_MOTION_DDOT":"0.0000000000000","RCS_SIZE":"LARGE","NORAD_CAT_ID":"47550","MEAN_MOTION":"15.06402275","EPHEMERIS_TYPE":"0","MEAN_MOTION_DOT":"0.00002996","TIME_SYSTEM":"UTC","APOAPSIS":"548.223","CLASSIFICATION_TYPE":"U","INCLINATION":"53.0567","SEMIMAJOR_AXIS":"6925.342","CENTER_NAME":"EARTH","BSTAR":"0.00021992000000","TLE_LINE1":"1 47550U 21009C   21363.60308324  .00002996  00000-0  21992-3 0  9996","OBJECT_ID":"2021-009C","REV_AT_EPOCH":"5030","PERIOD":"95.592","MEAN_ELEMENT_THEORY":"SGP4","RA_OF_ASC_NODE":"34.9416","SITE":"AFETR","LAUNCH_DATE":"2021-02-04"},{"APOAPSIS":"548.123","CLASSIFICATION_TYPE":"U","SEMIMAJOR_AXIS":"6925.346","INCLINATION":"53.0563","RA_OF_ASC_NODE":"54.6563","SITE":"AFETR","LAUNCH_DATE":"2021-02-04","BSTAR":"0.00016778000000","CENTER_NAME":"EARTH","OBJECT_ID":"2021-009D","TLE_LINE1":"1 47551U 21009D   21363.66389651  .00002219  00000-0  16778-3 0  9999","MEAN_ELEMENT_THEORY":"SGP4","PERIOD":"95.592","REV_AT_EPOCH":"5003","ECCENTRICITY":"0.00013160","EPOCH":"2021-12-29T15:56:00.658464","GP_ID":"192743541","PERIAPSIS":"546.300","FILE":"3255236","TLE_LINE2":"2 47551  53.0563  54.6563 0001316  82.8099 277.3040 15.06400740 50030","OBJECT_TYPE":"PAYLOAD","REF_FRAME":"TEME","ELEMENT_SET_NO":"999","COUNTRY_CODE":"US","MEAN_MOTION_DDOT":"0.0000000000000","RCS_SIZE":"LARGE","NORAD_CAT_ID":"47551","TIME_SYSTEM":"UTC","MEAN_MOTION_DOT":"0.00002219","EPHEMERIS_TYPE":"0","MEAN_MOTION":"15.06400740","MEAN_ANOMALY":"277.3040","DECAY_DATE":null,"ARG_OF_PERICENTER":"82.8099","OBJECT_NAME":"STARLINK-1938"},{"TLE_LINE2":"2 47552  53.0549  45.5380 0001455  80.0842 280.0311 15.06409800 50747","FILE":"3255139","REF_FRAME":"TEME","OBJECT_TYPE":"PAYLOAD","GP_ID":"192720650","EPOCH":"2021-12-29T11:16:01.388928","ECCENTRICITY":"0.00014550","PERIAPSIS":"546.176","DECAY_DATE":null,"ARG_OF_PERICENTER":"80.0842","MEAN_ANOMALY":"280.0311","OBJECT_NAME":"STARLINK-1940","MEAN_MOTION_DDOT":"0.0000000000000","ELEMENT_SET_NO":"999","COUNTRY_CODE":"US","MEAN_MOTION_DOT":"0.00004837","TIME_SYSTEM":"UTC","MEAN_MOTION":"15.06409800","EPHEMERIS_TYPE":"0","NORAD_CAT_ID":"47552","RCS_SIZE":"LARGE","CLASSIFICATION_TYPE":"U","APOAPSIS":"548.191","SEMIMAJOR_AXIS":"6925.319","INCLINATION":"53.0549","BSTAR":"0.00034333000000","CENTER_NAME":"EARTH","MEAN_ELEMENT_THEORY":"SGP4","PERIOD":"95.592","REV_AT_EPOCH":"5074","OBJECT_ID":"2021-009E","TLE_LINE1":"1 47552U 21009E   21363.46946052  .00004837  00000-0  34333-3 0  9997","RA_OF_ASC_NODE":"45.5380","SITE":"AFETR","LAUNCH_DATE":"2021-02-04"}];
